{"version": 0.6, "generator": "Overpass API 0.7.59 e21c39fe", "osm3s": {"timestamp_osm_base": "2022-11-17T22:38:12Z", "copyright": "The data included in this document is from www.openstreetmap.org. The data is made available under ODbL."}, "elements": [{"type": "node", "id": 27419484, "lat": 53.4008712, "lon": -2.9762946, "tags": {"amenity": "bar", "name": "Blue Angel"}}, {"type": "node", "id": 27419489, "lat": 53.4018492, "lon": -2.9789763, "tags": {"amenity": "bar", "name": "Alma de Cuba", "wheelchair": "limited"}}, {"type": "node", "id": 101439393, "lat": 53.4008485, "lon": -2.9915992, "tags": {"amenity": "bar", "name": "Revolution de Cuba", "website": "https://www.revoluciondecuba.com/bar/liverpool/"}}, {"type": "node", "id": 277072278, "lat": 53.4018979, "lon": -2.9803966, "tags": {"amenity": "bar", "name": "The Merchant"}}, {"type": "node", "id": 308766469, "lat": 53.4080808, "lon": -2.9872457, "tags": {"gay": "yes", "addr:housenumber": "10", "addr:street": "Cumberland Street", "amenity": "bar", "contact:facebook": "https://www.facebook.com/masquerade.bar/", "lgbtq": "primary", "name": "Masquerade Bar", "phone": "+44 151 236 7786", "postal_code": "L1 6BU"}}, {"type": "node", "id": 348038381, "lat": 53.4017098, "lon": -2.9801612}, {"type": "node", "id": 503689416, "lat": 53.4069291, "lon": -2.9310837, "tags": {"amenity": "bar"}}, {"type": "node", "id": 705908217, "lat": 53.401364, "lon": -2.9764495, "tags": {"source": "Yahoo", "name": "Mojo", "amenity": "bar", "addr:housename": "The Stables", "addr:postcode": "L1 4BG"}}, {"type": "node", "id": 824631084, "lat": 53.4038503, "lon": -2.9810494, "tags": {"name": "Krazy House", "amenity": "bar"}}, {"type": "node", "id": 881811213, "lat": 53.4015872, "lon": -2.9815757, "tags": {"amenity": "bar", "name": "The Green Room"}}, {"type": "node", "id": 1139717852, "lat": 53.4033167, "lon": -2.9805536, "tags": {"name": "Modo", "amenity": "bar"}}, {"type": "node", "id": 1139717867, "lat": 53.4029376, "lon": -2.9797436, "tags": {"amenity": "bar", "name": "Baa Bar"}}, {"type": "node", "id": 1994604741, "lat": 53.4072151, "lon": -2.9846109, "tags": {"amenity": "bar", "name": "Kozys Bar", "website": "http://www.kozysbar.co.uk/"}}, {"type": "node", "id": 2018636175, "lat": 53.3816927, "lon": -2.945247, "tags": {"website": "http://www.larklane.com/keiths/", "phone": "+44 151 727 4350", "addr:housenumber": "107", "addr:postcode": "L17 8UR", "addr:street": "Lark Lane", "amenity": "bar", "name": "Keith's"}}, {"type": "node", "id": 2018647833, "lat": 53.3806724, "lon": -2.9463895, "tags": {"amenity": "bar", "name": "The Lodge"}}, {"type": "node", "id": 2018647893, "lat": 53.3812265, "lon": -2.9454874, "tags": {"amenity": "bar", "name": "Love and Rockets"}}, {"type": "node", "id": 2018648999, "lat": 53.3823039, "lon": -2.9440553, "tags": {"amenity": "bar", "cuisine": "mexican", "name": "Que Pasa Cantina"}}, {"type": "node", "id": 2267266601, "lat": 53.4002576, "lon": -2.99106, "tags": {"source:addr": "FHRS Open Data", "name": "Revolution", "fhrs:id": "498306", "addr:postcode": "L3 4AE", "addr:street": "Salthouse Quay", "amenity": "bar"}}, {"type": "node", "id": 2392560996, "lat": 53.4016154, "lon": -2.9803509}, {"type": "node", "id": 2392560998, "lat": 53.4016364, "lon": -2.9802684}, {"type": "node", "id": 2392560999, "lat": 53.4016469, "lon": -2.9804501}, {"type": "node", "id": 2392561000, "lat": 53.4016527, "lon": -2.9803105}, {"type": "node", "id": 2392561001, "lat": 53.4016575, "lon": -2.980218}, {"type": "node", "id": 2392561002, "lat": 53.4016643, "lon": -2.980244}, {"type": "node", "id": 2392561003, "lat": 53.401764, "lon": -2.9803381}, {"type": "node", "id": 2482985461, "lat": 53.4018913, "lon": -2.9828767, "tags": {"addr:city": "Liverpool", "addr:housenumber": "52", "addr:postcode": "L1 5AA", "addr:street": "Duke Street", "amenity": "bar", "internet_access": "yes", "name": "Sound Food & Drink"}}, {"type": "node", "id": 2804280485, "lat": 53.3849255, "lon": -2.9070413, "tags": {"amenity": "bar", "name": "The Other Place"}}, {"type": "node", "id": 3131310991, "lat": 53.4076628, "lon": -2.9877839, "tags": {"building:level": "-1", "source:addr": "FHRS Open Data", "addr:housenumber": "8-10", "addr:street": "Stanley Street", "amenity": "bar", "fhrs:id": "665042", "name": "Boutique", "source": "Mapillary"}}, {"type": "node", "id": 3755497311, "lat": 53.4008432, "lon": -2.975825, "tags": {"amenity": "bar", "name": "Red Door"}}, {"type": "node", "id": 4314101468, "lat": 53.4021526, "lon": -2.969882, "tags": {"amenity": "bar", "name": "Jenever Bar", "wheelchair": "no"}}, {"type": "node", "id": 4339464394, "lat": 53.4067466, "lon": -2.9775305, "tags": {"addr:city": "Liverpool", "addr:housename": "Grand Central", "addr:postcode": "L3 5GA", "addr:street": "Hilbre Street", "amenity": "bar", "name": "Dough Bar"}}, {"type": "node", "id": 4366614080, "lat": 53.3948118, "lon": -2.9780007, "tags": {"amenity": "bar", "name": "Constellations"}}, {"type": "node", "id": 4402565593, "lat": 53.4053354, "lon": -2.9911746, "tags": {"amenity": "bar", "name": "Cornmarket", "name:en": "Cornmarket"}}, {"type": "node", "id": 4402567190, "lat": 53.4043954, "lon": -2.9828196, "tags": {"addr:housenumber": "35", "addr:street": "School Lane", "amenity": "bar", "internet_access": "wlan", "name": "Brass Monkey", "name:en": "Brass Monkey"}}, {"type": "node", "id": 4402678489, "lat": 53.4017596, "lon": -2.9772471, "tags": {"internet_access": "wlan", "addr:street": "Colquitt Street", "addr:postcode": "L1 4DE", "amenity": "bar", "addr:housenumber": "8", "name:en": "Brewdog", "name": "Brewdog"}}, {"type": "node", "id": 4417944954, "lat": 53.4050837, "lon": -2.9661891, "tags": {"amenity": "bar", "name": "Courtyard Bar"}}, {"type": "node", "id": 4443832459, "lat": 53.4059991, "lon": -2.9777488, "tags": {"addr:city": "Liverpool", "addr:housename": "Grand Central", "addr:postcode": "L3 5LX", "addr:street": "Bolton Street", "amenity": "bar", "name": "Riley's Sports Bar", "opening_hours": "Mo-Sa 11:00-00:00; Su 11:00-23:00", "operator": "Riley's", "smoking": "no", "sport": "billiards"}}, {"type": "node", "id": 4484185003, "lat": 53.3373311, "lon": -2.8550808, "tags": {"amenity": "bar", "name": "Go Bar & Kitchen"}}, {"type": "node", "id": 4484185005, "lat": 53.3372222, "lon": -2.8546678, "tags": {"amenity": "bar", "name": "Premium Lounge"}}, {"type": "node", "id": 4501083387, "lat": 53.4030244, "lon": -2.9883266, "tags": {"amenity": "bar", "name": "Bierkeller"}}, {"type": "node", "id": 4501133096, "lat": 53.4037137, "lon": -2.9888415, "tags": {"name": "Thaikhun", "amenity": "bar"}}, {"type": "node", "id": 4501133120, "lat": 53.4036593, "lon": -2.9838339, "tags": {"wheelchair": "yes", "amenity": "bar", "name": "Roxy Ball Room", "toilets:wheelchair": "yes"}}, {"type": "node", "id": 4515273806, "lat": 53.4019623, "lon": -2.976156, "tags": {"smoking": "outside", "name": "Bar Tabac", "level": "0", "amenity": "bar", "addr:street": "Bold Street"}}, {"type": "node", "id": 4516777645, "lat": 53.4024013, "lon": -2.984039, "tags": {"amenity": "bar", "name": "Filter and Fox", "wheelchair": "no"}}, {"type": "node", "id": 4546774611, "lat": 53.402776, "lon": -2.9787251, "tags": {"addr:street": "Wood Street", "amenity": "bar", "name": "Woody's Sports & Karaoke Bar", "smoking": "outside"}}, {"type": "node", "id": 4683836396, "lat": 53.4022661, "lon": -2.9834184, "tags": {"amenity": "bar", "name": "The Brunch Club", "wheelchair": "no"}}, {"type": "node", "id": 4683836398, "lat": 53.401534, "lon": -2.9774559, "tags": {"amenity": "bar", "name": "La'go"}}, {"type": "node", "id": 4890012523, "lat": 53.4066316, "lon": -2.9914613, "tags": {"amenity": "bar", "name": "Black Barrel"}}, {"type": "node", "id": 5214540884, "lat": 53.38052, "lon": -2.946582, "tags": {"addr:street": "Lark Lane", "amenity": "bar", "name": "Monkey Grinder"}}, {"type": "node", "id": 5214540885, "lat": 53.3804894, "lon": -2.9466404, "tags": {"operator": "Writer's Block", "addr:street": "Lark Lane", "amenity": "bar"}}, {"type": "node", "id": 5276924329, "lat": 53.4031303, "lon": -2.9800387, "tags": {"addr:city": "Liverpool", "addr:housenumber": "46-50", "addr:postcode": "L1 4AQ", "addr:street": "Wood Street", "amenity": "bar", "name": "Boston Pool Loft", "phone": "+44 151 305 2426", "website": "http://bostonpoolloft.co.uk/"}}, {"type": "node", "id": 5390278587, "lat": 53.4024493, "lon": -2.9829324, "tags": {"addr:city": "Liverpool", "addr:housenumber": "28", "addr:postcode": "L1 4JH", "addr:street": "Gradwell Street", "amenity": "bar", "name": "Pattersons", "opening_hours": "Mo-Su 12:00-00:00", "outdoor_seating": "yes", "phone": "+44 151 707 6367", "website": "http://www.pattersonsliverpool.com/"}}, {"type": "node", "id": 5612684977, "lat": 53.4065974, "lon": -2.9837764, "tags": {"amenity": "bar", "name": "Sweeney's Bar"}}, {"type": "node", "id": 5613166126, "lat": 53.4037645, "lon": -2.9740723, "tags": {"name": "Vooo Lounge", "amenity": "bar"}}, {"type": "node", "id": 5861451936, "lat": 53.4082774, "lon": -2.9764515, "tags": {"amenity": "bar", "name": "Castaway"}}, {"type": "node", "id": 5861452517, "lat": 53.4075905, "lon": -2.9809129, "tags": {"amenity": "bar", "name": "Courtyard"}}, {"type": "node", "id": 5863833650, "lat": 53.4084403, "lon": -2.990989, "tags": {"source:addr": "FHRS Open Data", "addr:housename": "Tempest Building", "addr:postcode": "L2 2DT", "addr:street": "Tithebarn Street", "amenity": "bar", "fhrs:id": "927895", "name": "Hus"}}, {"type": "node", "id": 5865641966, "lat": 53.4035065, "lon": -2.9794323, "tags": {"name": "Coyote Ugly", "amenity": "bar"}}, {"type": "node", "id": 5870696560, "lat": 53.4057638, "lon": -2.9906982, "tags": {"amenity": "bar", "name": "Veeno"}}, {"type": "node", "id": 5871157722, "lat": 53.4064767, "lon": -2.9883266, "tags": {"amenity": "bar", "name": "Wall of Fame"}}, {"type": "node", "id": 5871157989, "lat": 53.4078391, "lon": -2.9924684, "tags": {"amenity": "bar", "name": "Vincent"}}, {"type": "node", "id": 5871159302, "lat": 53.4079378, "lon": -2.9882997, "tags": {"amenity": "bar", "name": "Ghoulies Horror Bar"}}, {"type": "node", "id": 5871727258, "lat": 53.4005031, "lon": -2.9764376, "tags": {"amenity": "bar", "name": "Bunch"}}, {"type": "node", "id": 5871727883, "lat": 53.4017347, "lon": -2.9728733, "tags": {"amenity": "bar", "name": "Tom Thumb"}}, {"type": "node", "id": 5871728986, "lat": 53.400146, "lon": -2.9761027, "tags": {"amenity": "bar", "name": "Chamber 36"}}, {"type": "node", "id": 6027632006, "lat": 53.4023695, "lon": -2.9139204, "tags": {"addr:city": "liverpool", "addr:housename": "Long Lane", "addr:street": "Long Lane", "amenity": "bar", "brewery": "yes", "name": "Olive Bank Community Club", "outdoor_seating": "yes", "smoking": "outside"}}, {"type": "node", "id": 6240702554, "lat": 53.4011337, "lon": -2.9690906, "tags": {"amenity": "bar", "name": "Music Room"}}, {"type": "node", "id": 6331369615, "lat": 53.3814201, "lon": -2.9456653, "tags": {"amenity": "bar", "name": "Polidor"}}, {"type": "node", "id": 6366040785, "lat": 53.4005407, "lon": -2.9764186, "tags": {"phone": "+447305079675", "addr:housenumber": "48", "addr:postcode": "L1 4JQ", "addr:street": "Berry Street", "amenity": "bar", "name": "Berry & Rye", "opening_hours": "Mo-Su 17:00-02:00"}}, {"type": "node", "id": 6366040885, "lat": 53.4025183, "lon": -2.9808399, "tags": {"opening_hours": "Mo-Su 12:00-00:00", "addr:housenumber": "40", "addr:postcode": "L1 4BE", "addr:street": "Seel Street", "amenity": "bar", "name": "PHASE one", "name:en": "PHASE ONE"}}, {"type": "node", "id": 6366040886, "lat": 53.4019784, "lon": -2.984701, "tags": {"name:en": "Furnivals Well", "addr:housenumber": "1", "addr:postcode": "L1 5FB", "addr:street": "Campbell Square", "amenity": "bar", "name": "Furnivals well"}}, {"type": "node", "id": 6512256293, "lat": 53.4059202, "lon": -2.994019, "tags": {"amenity": "bar", "name": "Africa House Roof Bar"}}, {"type": "node", "id": 6705014004, "lat": 53.4055593, "lon": -2.9905222, "tags": {"addr:city": "Liverpool", "addr:housenumber": "52-54", "addr:postcode": "L2 7LQ", "addr:street": "Castle Street", "amenity": "bar", "name": "Liverpool Gin Distillery", "website": "https://liverpoolgindistillery.com", "wheelchair": "yes"}}, {"type": "node", "id": 6705014006, "lat": 53.403088, "lon": -2.9784912, "tags": {"website": "http://www.ropes-and-twines.co.uk/", "amenity": "bar", "name": "Ropes and Twines"}}, {"type": "node", "id": 6807297586, "lat": 53.4037203, "lon": -2.9793748, "tags": {"name": "Bundobust", "amenity": "bar", "addr:street": "Bold Street"}}, {"type": "node", "id": 6807300787, "lat": 53.3965087, "lon": -2.9827415, "tags": {"name": "Love Lane Brewery", "addr:housenumber": "62", "addr:street": "Bridgewater Street", "amenity": "bar"}}, {"type": "node", "id": 6807322786, "lat": 53.4044316, "lon": -2.9819287, "tags": {"amenity": "bar", "name": "Head of Steam"}}, {"type": "node", "id": 6814125085, "lat": 53.3934568, "lon": -2.9808636, "tags": {"amenity": "bar", "name": "Gibberish"}}, {"type": "node", "id": 6814303886, "lat": 53.3978792, "lon": -2.9830123, "tags": {"addr:street": "Kings Dock Street", "amenity": "bar", "name": "Black Lodge Brewery"}}, {"type": "node", "id": 6825321285, "lat": 53.4036156, "lon": -2.9806747, "tags": {"amenity": "bar", "name": "Mulligan's of Liverpool"}}, {"type": "node", "id": 6829837286, "lat": 53.3936176, "lon": -2.9780244, "tags": {"amenity": "bar", "name": "Peaky Blinders Liverpool"}}, {"type": "node", "id": 7098328974, "lat": 53.3969135, "lon": -2.9811477, "tags": {"outdoor_seating": "no", "amenity": "bar", "name": "Hobo Kiosk"}}, {"type": "node", "id": 7098378338, "lat": 53.4012908, "lon": -2.9720827, "tags": {"website": "http://buyers-club.co.uk/", "addr:city": "Liverpool", "addr:housenumber": "24", "addr:postcode": "L1 9AX", "addr:street": "Hardman Street", "amenity": "bar", "name": "Buyers Club", "outdoor_seating": "yes"}}, {"type": "node", "id": 7770768821, "lat": 53.3939315, "lon": -2.9790695, "tags": {"addr:city": "Liverpool", "addr:housenumber": "29-31", "addr:postcode": "L8 5RN", "addr:street": "Parliament Street", "amenity": "bar", "name": "Birdie's Bar and Barbeque", "opening_hours": "Mo-Su 12:00-01:00"}}, {"type": "way", "id": 230811257, "nodes": [2392560999, 2392561003, 348038381, 2392561001, 2392561002, 2392560998, 2392561000, 2392560996, 2392560999], "tags": {"website": "http://www.santachupitos.com/", "amenity": "bar", "building": "yes", "name": "Santa Chupitos", "opening_hours": "Mo-Su 00:00-03:00,17:00-24:00;Tu-Th 00:00-02:00,17:00-24:00"}}]}